STARLINK-35858          
1 66833U 25280N   26001.16668980 -.02011732  00000+0 -66529-1 0  9992
2 66833  69.9993 145.3130 0003666 274.6721 179.9078 15.34950226  6015
STARLINK-35840          
1 66834U 25280P   26001.16668980 -.02026666  00000+0 -62732-1 0  9997
2 66834  69.9991 145.2821 0003655 282.0809 201.5616 15.37026058  6018
STARLINK-35890          
1 66835U 25280Q   26001.16668980 -.02005634  00000+0 -66232-1 0  9999
2 66835  69.9997 145.3070 0003665 276.5015 182.4200 15.34983086  6016
STARLINK-35838          
1 66836U 25280R   26001.16668980 -.01996319  00000+0 -65760-1 0  9993
2 66836  69.9991 145.3031 0003703 276.5466 185.1881 15.35042794  6019
STARLINK-35729          
1 66837U 25280S   26001.16668980 -.02010939  00000+0 -75408-1 0  9990
2 66837  69.9998 145.3838 0003571 269.1384 121.6098 15.30392770  6014
STARLINK-35886          
1 66838U 25280T   26001.16668980 -.02018703  00000+0 -61846-1 0  9999
2 66838  69.9996 145.2643 0003410 280.3367 216.6312 15.37329945  6019
STARLINK-35717          
1 66839U 25280U   26001.16668980 -.02005118  00000+0 -65760-1 0  9995
2 66839  69.9993 145.2967 0003630 277.7973 189.8730 15.35197188  6018
STARLINK-35837          
1 66840U 25280V   26001.16668980 -.02062857  00000+0 -75583-1 0  9994
2 66840  69.9998 145.3608 0003711 268.1688 142.3596 15.31219147  6015
STARLINK-35715          
1 66841U 25280W   26001.16668980 -.02006247  00000+0 -73324-1 0  9997
2 66841  69.9992 145.3586 0003595 271.6329 140.8462 15.31208051  6013
STARLINK-35769          
1 66842U 25280X   26001.16668980 -.02001472  00000+0 -61189-1 0  9999
2 66842  69.9991 145.2582 0003631 282.5656 220.7836 15.37359791  6010
STARLINK-35997          
1 66843U 25280Y   26001.16668980 -.01998242  00000+0 -64300-1 0  9997
2 66843  70.0000 145.2732 0003613 279.3379 207.6404 15.35774821  6016
STARLINK-36073          
1 66844U 25280Z   26001.16668980 -.02003800  00000+0 -68677-1 0  9997
2 66844  69.9995 145.3075 0003763 277.7602 179.7537 15.33816381  6017
