CCSDS_OMM_VERS = 2.0
CREATION_DATE  = 
ORIGINATOR     = 

OBJECT_NAME    = STARLINK-35858
OBJECT_ID      = 2025-280N
CENTER_NAME    = EARTH
REF_FRAME      = TEME
TIME_SYSTEM    = UTC
MEAN_ELEMENT_THEORY = SGP/SGP4

EPOCH          = 2026-01-01T04:00:01.998720
MEAN_MOTION    = 15.34950226
ECCENTRICITY   = .0003666
INCLINATION    = 69.9993
RA_OF_ASC_NODE = 145.3130
ARG_OF_PERICENTER = 274.6721
MEAN_ANOMALY   = 179.9078

EPHEMERIS_TYPE = 0
CLASSIFICATION_TYPE = U
NORAD_CAT_ID   = 66833
ELEMENT_SET_NO = 999
REV_AT_EPOCH   = 601
BSTAR          = -.66529E-1
MEAN_MOTION_DOT = -.2011732E-1
MEAN_MOTION_DDOT = 0

CCSDS_OMM_VERS = 2.0
CREATION_DATE  = 
ORIGINATOR     = 

OBJECT_NAME    = STARLINK-35840
OBJECT_ID      = 2025-280P
CENTER_NAME    = EARTH
REF_FRAME      = TEME
TIME_SYSTEM    = UTC
MEAN_ELEMENT_THEORY = SGP/SGP4

EPOCH          = 2026-01-01T04:00:01.998720
MEAN_MOTION    = 15.37026058
ECCENTRICITY   = .0003655
INCLINATION    = 69.9991
RA_OF_ASC_NODE = 145.2821
ARG_OF_PERICENTER = 282.0809
MEAN_ANOMALY   = 201.5616

EPHEMERIS_TYPE = 0
CLASSIFICATION_TYPE = U
NORAD_CAT_ID   = 66834
ELEMENT_SET_NO = 999
REV_AT_EPOCH   = 601
BSTAR          = -.62732E-1
MEAN_MOTION_DOT = -.2026666E-1
MEAN_MOTION_DDOT = 0

CCSDS_OMM_VERS = 2.0
CREATION_DATE  = 
ORIGINATOR     = 

OBJECT_NAME    = STARLINK-35890
OBJECT_ID      = 2025-280Q
CENTER_NAME    = EARTH
REF_FRAME      = TEME
TIME_SYSTEM    = UTC
MEAN_ELEMENT_THEORY = SGP/SGP4

EPOCH          = 2026-01-01T04:00:01.998720
MEAN_MOTION    = 15.34983086
ECCENTRICITY   = .0003665
INCLINATION    = 69.9997
RA_OF_ASC_NODE = 145.3070
ARG_OF_PERICENTER = 276.5015
MEAN_ANOMALY   = 182.4200

EPHEMERIS_TYPE = 0
CLASSIFICATION_TYPE = U
NORAD_CAT_ID   = 66835
ELEMENT_SET_NO = 999
REV_AT_EPOCH   = 601
BSTAR          = -.66232E-1
MEAN_MOTION_DOT = -.2005634E-1
MEAN_MOTION_DDOT = 0

CCSDS_OMM_VERS = 2.0
CREATION_DATE  = 
ORIGINATOR     = 

OBJECT_NAME    = STARLINK-35838
OBJECT_ID      = 2025-280R
CENTER_NAME    = EARTH
REF_FRAME      = TEME
TIME_SYSTEM    = UTC
MEAN_ELEMENT_THEORY = SGP/SGP4

EPOCH          = 2026-01-01T04:00:01.998720
MEAN_MOTION    = 15.35042794
ECCENTRICITY   = .0003703
INCLINATION    = 69.9991
RA_OF_ASC_NODE = 145.3031
ARG_OF_PERICENTER = 276.5466
MEAN_ANOMALY   = 185.1881

EPHEMERIS_TYPE = 0
CLASSIFICATION_TYPE = U
NORAD_CAT_ID   = 66836
ELEMENT_SET_NO = 999
REV_AT_EPOCH   = 601
BSTAR          = -.6576E-1
MEAN_MOTION_DOT = -.1996319E-1
MEAN_MOTION_DDOT = 0

CCSDS_OMM_VERS = 2.0
CREATION_DATE  = 
ORIGINATOR     = 

OBJECT_NAME    = STARLINK-35729
OBJECT_ID      = 2025-280S
CENTER_NAME    = EARTH
REF_FRAME      = TEME
TIME_SYSTEM    = UTC
MEAN_ELEMENT_THEORY = SGP/SGP4

EPOCH          = 2026-01-01T04:00:01.998720
MEAN_MOTION    = 15.30392770
ECCENTRICITY   = .0003571
INCLINATION    = 69.9998
RA_OF_ASC_NODE = 145.3838
ARG_OF_PERICENTER = 269.1384
MEAN_ANOMALY   = 121.6098

EPHEMERIS_TYPE = 0
CLASSIFICATION_TYPE = U
NORAD_CAT_ID   = 66837
ELEMENT_SET_NO = 999
REV_AT_EPOCH   = 601
BSTAR          = -.75408E-1
MEAN_MOTION_DOT = -.2010939E-1
MEAN_MOTION_DDOT = 0

CCSDS_OMM_VERS = 2.0
CREATION_DATE  = 
ORIGINATOR     = 

OBJECT_NAME    = STARLINK-35886
OBJECT_ID      = 2025-280T
CENTER_NAME    = EARTH
REF_FRAME      = TEME
TIME_SYSTEM    = UTC
MEAN_ELEMENT_THEORY = SGP/SGP4

EPOCH          = 2026-01-01T04:00:01.998720
MEAN_MOTION    = 15.37329945
ECCENTRICITY   = .000341
INCLINATION    = 69.9996
RA_OF_ASC_NODE = 145.2643
ARG_OF_PERICENTER = 280.3367
MEAN_ANOMALY   = 216.6312

EPHEMERIS_TYPE = 0
CLASSIFICATION_TYPE = U
NORAD_CAT_ID   = 66838
ELEMENT_SET_NO = 999
REV_AT_EPOCH   = 601
BSTAR          = -.61846E-1
MEAN_MOTION_DOT = -.2018703E-1
MEAN_MOTION_DDOT = 0

CCSDS_OMM_VERS = 2.0
CREATION_DATE  = 
ORIGINATOR     = 

OBJECT_NAME    = STARLINK-35717
OBJECT_ID      = 2025-280U
CENTER_NAME    = EARTH
REF_FRAME      = TEME
TIME_SYSTEM    = UTC
MEAN_ELEMENT_THEORY = SGP/SGP4

EPOCH          = 2026-01-01T04:00:01.998720
MEAN_MOTION    = 15.35197188
ECCENTRICITY   = .000363
INCLINATION    = 69.9993
RA_OF_ASC_NODE = 145.2967
ARG_OF_PERICENTER = 277.7973
MEAN_ANOMALY   = 189.8730

EPHEMERIS_TYPE = 0
CLASSIFICATION_TYPE = U
NORAD_CAT_ID   = 66839
ELEMENT_SET_NO = 999
REV_AT_EPOCH   = 601
BSTAR          = -.6576E-1
MEAN_MOTION_DOT = -.2005118E-1
MEAN_MOTION_DDOT = 0

CCSDS_OMM_VERS = 2.0
CREATION_DATE  = 
ORIGINATOR     = 

OBJECT_NAME    = STARLINK-35837
OBJECT_ID      = 2025-280V
CENTER_NAME    = EARTH
REF_FRAME      = TEME
TIME_SYSTEM    = UTC
MEAN_ELEMENT_THEORY = SGP/SGP4

EPOCH          = 2026-01-01T04:00:01.998720
MEAN_MOTION    = 15.31219147
ECCENTRICITY   = .0003711
INCLINATION    = 69.9998
RA_OF_ASC_NODE = 145.3608
ARG_OF_PERICENTER = 268.1688
MEAN_ANOMALY   = 142.3596

EPHEMERIS_TYPE = 0
CLASSIFICATION_TYPE = U
NORAD_CAT_ID   = 66840
ELEMENT_SET_NO = 999
REV_AT_EPOCH   = 601
BSTAR          = -.75583E-1
MEAN_MOTION_DOT = -.2062857E-1
MEAN_MOTION_DDOT = 0

CCSDS_OMM_VERS = 2.0
CREATION_DATE  = 
ORIGINATOR     = 

OBJECT_NAME    = STARLINK-35715
OBJECT_ID      = 2025-280W
CENTER_NAME    = EARTH
REF_FRAME      = TEME
TIME_SYSTEM    = UTC
MEAN_ELEMENT_THEORY = SGP/SGP4

EPOCH          = 2026-01-01T04:00:01.998720
MEAN_MOTION    = 15.31208051
ECCENTRICITY   = .0003595
INCLINATION    = 69.9992
RA_OF_ASC_NODE = 145.3586
ARG_OF_PERICENTER = 271.6329
MEAN_ANOMALY   = 140.8462

EPHEMERIS_TYPE = 0
CLASSIFICATION_TYPE = U
NORAD_CAT_ID   = 66841
ELEMENT_SET_NO = 999
REV_AT_EPOCH   = 601
BSTAR          = -.73324E-1
MEAN_MOTION_DOT = -.2006247E-1
MEAN_MOTION_DDOT = 0

CCSDS_OMM_VERS = 2.0
CREATION_DATE  = 
ORIGINATOR     = 

OBJECT_NAME    = STARLINK-35769
OBJECT_ID      = 2025-280X
CENTER_NAME    = EARTH
REF_FRAME      = TEME
TIME_SYSTEM    = UTC
MEAN_ELEMENT_THEORY = SGP/SGP4

EPOCH          = 2026-01-01T04:00:01.998720
MEAN_MOTION    = 15.37359791
ECCENTRICITY   = .0003631
INCLINATION    = 69.9991
RA_OF_ASC_NODE = 145.2582
ARG_OF_PERICENTER = 282.5656
MEAN_ANOMALY   = 220.7836

EPHEMERIS_TYPE = 0
CLASSIFICATION_TYPE = U
NORAD_CAT_ID   = 66842
ELEMENT_SET_NO = 999
REV_AT_EPOCH   = 601
BSTAR          = -.61189E-1
MEAN_MOTION_DOT = -.2001472E-1
MEAN_MOTION_DDOT = 0

CCSDS_OMM_VERS = 2.0
CREATION_DATE  = 
ORIGINATOR     = 

OBJECT_NAME    = STARLINK-35997
OBJECT_ID      = 2025-280Y
CENTER_NAME    = EARTH
REF_FRAME      = TEME
TIME_SYSTEM    = UTC
MEAN_ELEMENT_THEORY = SGP/SGP4

EPOCH          = 2026-01-01T04:00:01.998720
MEAN_MOTION    = 15.35774821
ECCENTRICITY   = .0003613
INCLINATION    = 70.0000
RA_OF_ASC_NODE = 145.2732
ARG_OF_PERICENTER = 279.3379
MEAN_ANOMALY   = 207.6404

EPHEMERIS_TYPE = 0
CLASSIFICATION_TYPE = U
NORAD_CAT_ID   = 66843
ELEMENT_SET_NO = 999
REV_AT_EPOCH   = 601
BSTAR          = -.643E-1
MEAN_MOTION_DOT = -.1998242E-1
MEAN_MOTION_DDOT = 0

CCSDS_OMM_VERS = 2.0
CREATION_DATE  = 
ORIGINATOR     = 

OBJECT_NAME    = STARLINK-36073
OBJECT_ID      = 2025-280Z
CENTER_NAME    = EARTH
REF_FRAME      = TEME
TIME_SYSTEM    = UTC
MEAN_ELEMENT_THEORY = SGP/SGP4

EPOCH          = 2026-01-01T04:00:01.998720
MEAN_MOTION    = 15.33816381
ECCENTRICITY   = .0003763
INCLINATION    = 69.9995
RA_OF_ASC_NODE = 145.3075
ARG_OF_PERICENTER = 277.7602
MEAN_ANOMALY   = 179.7537

EPHEMERIS_TYPE = 0
CLASSIFICATION_TYPE = U
NORAD_CAT_ID   = 66844
ELEMENT_SET_NO = 999
REV_AT_EPOCH   = 601
BSTAR          = -.68677E-1
MEAN_MOTION_DOT = -.20038E-1
MEAN_MOTION_DDOT = 0

